[{"OBJECT_NAME":"STARLINK-2502","OBJECT_ID":"2021-036BD","EPOCH":"2026-03-10T00:00:02.999808","MEAN_MOTION":15.28340514,"ECCENTRICITY":9.335e-5,"INCLINATION":53.1499,"RA_OF_ASC_NODE":99.3642,"ARG_OF_PERICENTER":50.0408,"MEAN_ANOMALY":293.7111,"EPHEMERIS_TYPE":0,"CLASSIFICATION_TYPE":"U","NORAD_CAT_ID":48327,"ELEMENT_SET_NO":999,"REV_AT_EPOCH":579,"BSTAR":0.043872504,"MEAN_MOTION_DOT":0.01350461,"MEAN_MOTION_DDOT":0},{"OBJECT_NAME":"OBJECT R","OBJECT_ID":"2024-199R","EPOCH":"2026-03-09T21:37:29.244288","MEAN_MOTION":15.48356737,"ECCENTRICITY":0.00065431,"INCLINATION":97.3114,"RA_OF_ASC_NODE":303.0259,"ARG_OF_PERICENTER":290.9489,"MEAN_ANOMALY":69.1061,"EPHEMERIS_TYPE":0,"CLASSIFICATION_TYPE":"U","NORAD_CAT_ID":61750,"ELEMENT_SET_NO":999,"REV_AT_EPOCH":12215,"BSTAR":0.00070051746,"MEAN_MOTION_DOT":0.00037122,"MEAN_MOTION_DDOT":0}]
